{
  "type": "FeatureCollection",
  "features": [
    {
      "type": "Feature",
      "properties": {
        "norad_id": 31744,
        "name": "FENGYUN 1C DEB",
        "group": "fengyun-1c-debris",
        "lat": 41.42583896591386,
        "lon": 98.46278533311832,
        "alt_km": 621.8964481685398,
        "timestamp": "2025-12-21T09:37:22.938523+00:00",
        "meta_object_name": "FENGYUN 1C DEB",
        "meta_object_id": "1999-025CET",
        "meta_epoch": "2025-12-17T13:54:12.794400",
        "meta_mean_motion": 14.16604274,
        "meta_eccentricity": 0.03151073,
        "meta_inclination": 99.3037,
        "meta_ra_of_asc_node": 102.7793,
        "meta_arg_of_pericenter": 30.7507,
        "meta_mean_anomaly": 331.1716,
        "meta_ephemeris_type": 0,
        "meta_classification_type": "U",
        "meta_norad_cat_id": 31744,
        "meta_element_set_no": 999,
        "meta_rev_at_epoch": 94683,
        "meta_bstar": 0.00098574439,
        "meta_mean_motion_dot": 3.146e-05,
        "meta_mean_motion_ddot": 0,
        "tle_line1": "1 31744U 99025CET 25351.57931475  .00003146  00000+0  98574-3 0  9990",
        "tle_line2": "2 31744  99.3037 102.7793 0315107  30.7507 331.1716 14.16604274946837"
      },
      "geometry": {
        "type": "Point",
        "coordinates": [
          98.46278533311832,
          41.42583896591386
        ]
      }
    },
    {
      "type": "Feature",
      "properties": {
        "norad_id": 31746,
        "name": "FENGYUN 1C DEB",
        "group": "fengyun-1c-debris",
        "lat": -12.488715916119492,
        "lon": -63.3864817681217,
        "alt_km": 626.9625003768015,
        "timestamp": "2025-12-21T09:37:22.938543+00:00",
        "meta_object_name": "FENGYUN 1C DEB",
        "meta_object_id": "1999-025CEV",
        "meta_epoch": "2025-12-18T07:35:38.116032",
        "meta_mean_motion": 14.77023131,
        "meta_eccentricity": 0.00230437,
        "meta_inclination": 98.5884,
        "meta_ra_of_asc_node": 115.2503,
        "meta_arg_of_pericenter": 190.3404,
        "meta_mean_anomaly": 169.7333,
        "meta_ephemeris_type": 0,
        "meta_classification_type": "U",
        "meta_norad_cat_id": 31746,
        "meta_element_set_no": 999,
        "meta_rev_at_epoch": 97110,
        "meta_bstar": 0.0030928277,
        "meta_mean_motion_dot": 0.00021911,
        "meta_mean_motion_ddot": 0,
        "tle_line1": "1 31746U 99025CEV 25352.31641338  .00021911  00000+0  30928-2 0  9999",
        "tle_line2": "2 31746  98.5884 115.2503 0023043 190.3404 169.7333 14.77023131971104"
      },
      "geometry": {
        "type": "Point",
        "coordinates": [
          -63.3864817681217,
          -12.488715916119492
        ]
      }
    },
    {
      "type": "Feature",
      "properties": {
        "norad_id": 31752,
        "name": "FENGYUN 1C DEB",
        "group": "fengyun-1c-debris",
        "lat": 6.483782094564689,
        "lon": 66.91706510816803,
        "alt_km": 771.2262831840262,
        "timestamp": "2025-12-21T09:37:22.938555+00:00",
        "meta_object_name": "FENGYUN 1C DEB",
        "meta_object_id": "1999-025CFB",
        "meta_epoch": "2025-12-18T10:55:16.632768",
        "meta_mean_motion": 13.93070684,
        "meta_eccentricity": 0.03557691,
        "meta_inclination": 98.9786,
        "meta_ra_of_asc_node": 65.0821,
        "meta_arg_of_pericenter": 317.9795,
        "meta_mean_anomaly": 39.4568,
        "meta_ephemeris_type": 0,
        "meta_classification_type": "U",
        "meta_norad_cat_id": 31752,
        "meta_element_set_no": 999,
        "meta_rev_at_epoch": 93670,
        "meta_bstar": 0.0010716417,
        "meta_mean_motion_dot": 2.302e-05,
        "meta_mean_motion_ddot": 0,
        "tle_line1": "1 31752U 99025CFB 25352.45505362  .00002302  00000+0  10716-2 0  9993",
        "tle_line2": "2 31752  98.9786  65.0821 0355769 317.9795  39.4568 13.93070684936706"
      },
      "geometry": {
        "type": "Point",
        "coordinates": [
          66.91706510816803,
          6.483782094564689
        ]
      }
    },
    {
      "type": "Feature",
      "properties": {
        "norad_id": 31753,
        "name": "FENGYUN 1C DEB",
        "group": "fengyun-1c-debris",
        "lat": -15.302507106725288,
        "lon": 30.67255430009706,
        "alt_km": 945.141676538,
        "timestamp": "2025-12-21T09:37:22.938566+00:00",
        "meta_object_name": "FENGYUN 1C DEB",
        "meta_object_id": "1999-025CFC",
        "meta_epoch": "2025-12-21T01:22:17.899104",
        "meta_mean_motion": 14.18648066,
        "meta_eccentricity": 0.0159508,
        "meta_inclination": 98.6308,
        "meta_ra_of_asc_node": 27.9561,
        "meta_arg_of_pericenter": 149.8607,
        "meta_mean_anomaly": 240.3905,
        "meta_ephemeris_type": 0,
        "meta_classification_type": "U",
        "meta_norad_cat_id": 31753,
        "meta_element_set_no": 999,
        "meta_rev_at_epoch": 96137,
        "meta_bstar": 0.00021041,
        "meta_mean_motion_dot": 4.53e-06,
        "meta_mean_motion_ddot": 0,
        "tle_line1": "1 31753U 99025CFC 25355.05715161  .00000453  00000+0  21041-3 0  9992",
        "tle_line2": "2 31753  98.6308  27.9561 0159508 149.8607 240.3905 14.18648066961371"
      },
      "geometry": {
        "type": "Point",
        "coordinates": [
          30.67255430009706,
          -15.302507106725288
        ]
      }
    },
    {
      "type": "Feature",
      "properties": {
        "norad_id": 31754,
        "name": "FENGYUN 1C DEB",
        "group": "fengyun-1c-debris",
        "lat": 80.14014354614714,
        "lon": -152.43917616931967,
        "alt_km": 748.0883394026687,
        "timestamp": "2025-12-21T09:37:22.938577+00:00",
        "meta_object_name": "FENGYUN 1C DEB",
        "meta_object_id": "1999-025CFD",
        "meta_epoch": "2025-12-19T15:33:43.119936",
        "meta_mean_motion": 14.4229945,
        "meta_eccentricity": 0.00493482,
        "meta_inclination": 99.0407,
        "meta_ra_of_asc_node": 319.3487,
        "meta_arg_of_pericenter": 196.9555,
        "meta_mean_anomaly": 162.9985,
        "meta_ephemeris_type": 0,
        "meta_classification_type": "U",
        "meta_norad_cat_id": 31754,
        "meta_element_set_no": 999,
        "meta_rev_at_epoch": 97089,
        "meta_bstar": 0.00063748904,
        "meta_mean_motion_dot": 2.086e-05,
        "meta_mean_motion_ddot": 0,
        "tle_line1": "1 31754U 99025CFD 25353.64841574  .00002086  00000+0  63749-3 0  9999",
        "tle_line2": "2 31754  99.0407 319.3487 0049348 196.9555 162.9985 14.42299450970897"
      },
      "geometry": {
        "type": "Point",
        "coordinates": [
          -152.43917616931967,
          80.14014354614714
        ]
      }
    },
    {
      "type": "Feature",
      "properties": {
        "norad_id": 31757,
        "name": "FENGYUN 1C DEB",
        "group": "fengyun-1c-debris",
        "lat": 64.3112547861192,
        "lon": -144.06068574303538,
        "alt_km": 766.2460121907461,
        "timestamp": "2025-12-21T09:37:22.938587+00:00",
        "meta_object_name": "FENGYUN 1C DEB",
        "meta_object_id": "1999-025CFG",
        "meta_epoch": "2025-12-19T19:34:47.252352",
        "meta_mean_motion": 14.07925739,
        "meta_eccentricity": 0.02177667,
        "meta_inclination": 98.7671,
        "meta_ra_of_asc_node": 15.6869,
        "meta_arg_of_pericenter": 64.1846,
        "meta_mean_anomaly": 298.1612,
        "meta_ephemeris_type": 0,
        "meta_classification_type": "U",
        "meta_norad_cat_id": 31757,
        "meta_element_set_no": 999,
        "meta_rev_at_epoch": 63981,
        "meta_bstar": 9.3425243e-05,
        "meta_mean_motion_dot": 1.55e-06,
        "meta_mean_motion_ddot": 0,
        "tle_line1": "1 31757U 99025CFG 25353.81582468  .00000155  00000+0  93425-4 0  9995",
        "tle_line2": "2 31757  98.7671  15.6869 0217766  64.1846 298.1612 14.07925739639819"
      },
      "geometry": {
        "type": "Point",
        "coordinates": [
          -144.06068574303538,
          64.3112547861192
        ]
      }
    },
    {
      "type": "Feature",
      "properties": {
        "norad_id": 31758,
        "name": "FENGYUN 1C DEB",
        "group": "fengyun-1c-debris",
        "lat": -27.403927265199567,
        "lon": 8.223767999831354,
        "alt_km": 755.9377665046422,
        "timestamp": "2025-12-21T09:37:22.938598+00:00",
        "meta_object_name": "FENGYUN 1C DEB",
        "meta_object_id": "1999-025CFH",
        "meta_epoch": "2025-12-20T18:45:49.222944",
        "meta_mean_motion": 14.42196591,
        "meta_eccentricity": 0.03173131,
        "meta_inclination": 98.0588,
        "meta_ra_of_asc_node": 3.4255,
        "meta_arg_of_pericenter": 65.8513,
        "meta_mean_anomaly": 297.5511,
        "meta_ephemeris_type": 0,
        "meta_classification_type": "U",
        "meta_norad_cat_id": 31758,
        "meta_element_set_no": 999,
        "meta_rev_at_epoch": 94316,
        "meta_bstar": 0.001401927,
        "meta_mean_motion_dot": 8.454e-05,
        "meta_mean_motion_ddot": 0,
        "tle_line1": "1 31758U 99025CFH 25354.78181971  .00008454  00000+0  14019-2 0  9997",
        "tle_line2": "2 31758  98.0588   3.4255 0317313  65.8513 297.5511 14.42196591943164"
      },
      "geometry": {
        "type": "Point",
        "coordinates": [
          8.223767999831354,
          -27.403927265199567
        ]
      }
    }
  ]
}